$$SOE
2460154.500000000, A.D. 2023-Jul-29 00:00:00.0000, 7.281430437517168E+07, 6.033177459861099E+07, -1.989056871859383E+06,
2460161.500000000, A.D. 2023-Aug-05 00:00:00.0000, 4.764664326987227E+07, 6.587307188906443E+07, -2.074946356802657E+06,
2460168.500000000, A.D. 2023-Aug-12 00:00:00.0000, 1.830010617724410E+07, 6.532249475758615E+07, -1.969637572306376E+06,
2460175.500000000, A.D. 2023-Aug-19 00:00:00.0000, -1.346983079522585E+07, 5.453986540464453E+07, -1.557152594476212E+06,
2460182.500000000, A.D. 2023-Aug-26 00:00:00.0000, -4.099747984107516E+07, 2.956269394697212E+07, -7.416409595439509E+05,
2460189.500000000, A.D. 2023-Sep-02 00:00:00.0000, -5.417599996516944E+07, -5.622278042431831E+06, 3.293686510151408E+05,
2460196.500000000, A.D. 2023-Sep-09 00:00:00.0000, -5.175777789339178E+07, -3.989496927209369E+07, 1.326252964970181E+06,
2460203.500000000, A.D. 2023-Sep-16 00:00:00.0000, -4.010300313988757E+07, -6.767149703193322E+07, 2.104724377382811E+06,
2460210.500000000, A.D. 2023-Sep-23 00:00:00.0000, -2.424257338414904E+07, -8.877764261799404E+07, 2.674965525170378E+06,
2460217.500000000, A.D. 2023-Sep-30 00:00:00.0000, -6.771508069714442E+06, -1.043480511573577E+08, 3.078108155368693E+06,
2460224.500000000, A.D. 2023-Oct-07 00:00:00.0000, 1.103444711146453E+07, -1.154717516359563E+08, 3.349938588949539E+06,
2460231.500000000, A.D. 2023-Oct-14 00:00:00.0000, 2.852077778126507E+07, -1.229907307688499E+08, 3.517116981267869E+06,
2460238.500000000, A.D. 2023-Oct-21 00:00:00.0000, 4.533174108298798E+07, -1.275336833642475E+08, 3.599145938451536E+06,
2460245.500000000, A.D. 2023-Oct-28 00:00:00.0000, 6.126241943824044E+07, -1.295734650729906E+08, 3.610503420773603E+06,
2460252.500000000, A.D. 2023-Nov-04 00:00:00.0000, 7.618737476877435E+07, -1.294724760169508E+08, 3.562189342375554E+06,
2460259.500000000, A.D. 2023-Nov-11 00:00:00.0000, 9.002417058345385E+07, -1.275145133646668E+08, 3.462769762291968E+06,
2460266.500000000, A.D. 2023-Nov-18 00:00:00.0000, 1.027136330922914E+08, -1.239266857248175E+08, 3.319079006585270E+06,
2460273.500000000, A.D. 2023-Nov-25 00:00:00.0000, 1.142085656852801E+08, -1.188946373284981E+08, 3.136700072154589E+06,
2460280.500000000, A.D. 2023-Dec-02 00:00:00.0000, 1.244669126313083E+08, -1.125733559169541E+08, 2.920302105556063E+06,
2460287.500000000, A.D. 2023-Dec-09 00:00:00.0000, 1.334473280347190E+08, -1.050950693982935E+08, 2.673885228075869E+06,
2460294.500000000, A.D. 2023-Dec-16 00:00:00.0000, 1.411060479621863E+08, -9.657522706829089E+07, 2.400965203373458E+06,
2460301.500000000, A.D. 2023-Dec-23 00:00:00.0000, 1.473944337758818E+08, -8.711724287370031E+07, 2.104719801644418E+06,
2460308.500000000, A.D. 2023-Dec-30 00:00:00.0000, 1.522567921992877E+08, -7.681648823332588E+07, 1.788112583995048E+06,
2460315.500000000, A.D. 2024-Jan-06 00:00:00.0000, 1.556281965601503E+08, -6.576392326411276E+07, 1.454006217016768E+06,
2460322.500000000, A.D. 2024-Jan-13 00:00:00.0000, 1.574320903500658E+08, -5.404971964668591E+07, 1.105275844625216E+06,
2460329.500000000, A.D. 2024-Jan-20 00:00:00.0000, 1.575774609689551E+08, -4.176725119335528E+07, 7.449344162398819E+05,
2460336.500000000, A.D. 2024-Jan-27 00:00:00.0000, 1.559553449187256E+08, -2.901793425823331E+07, 3.762850787710994E+05,
2460343.500000000, A.D. 2024-Feb-03 00:00:00.0000, 1.524343772115403E+08, -1.591761924260562E+07, 3.121986377831548E+03,
2460350.500000000, A.D. 2024-Feb-10 00:00:00.0000, 1.468550291623917E+08, -2.605647088000376E+06, -3.699868091209158E+05,
2460357.500000000, A.D. 2024-Feb-17 00:00:00.0000, 1.390221176683073E+08, 1.074153687582861E+07, -7.372776830050522E+05,
2460364.500000000, A.D. 2024-Feb-24 00:00:00.0000, 1.286952175377091E+08, 2.388881830110067E+07, -1.091130427670366E+06,
2460371.500000000, A.D. 2024-Mar-02 00:00:00.0000, 1.155771157688500E+08, 3.650650950794383E+07, -1.420981131312918E+06,
2460378.500000000, A.D. 2024-Mar-09 00:00:00.0000, 9.930261065085723E+07, 4.810751986238446E+07, -1.711447167475255E+06,
2460385.500000000, A.D. 2024-Mar-16 00:00:00.0000, 7.943800682644509E+07, 5.793191847903857E+07, -1.938943171072233E+06,
2460392.500000000, A.D. 2024-Mar-23 00:00:00.0000, 5.553116325084294E+07, 6.472665519758492E+07, -2.065378626395818E+06,
2460399.500000000, A.D. 2024-Mar-30 00:00:00.0000, 2.736105864831230E+07, 6.633117966755442E+07, -2.026774235985171E+06,
2460406.500000000, A.D. 2024-Apr-06 00:00:00.0000, -4.096361313622536E+06, 5.908600129374218E+07, -1.718867120421480E+06,
2460413.500000000, A.D. 2024-Apr-13 00:00:00.0000, -3.395708828468569E+07, 3.842609710251081E+07, -1.022738902325271E+06,
2460420.500000000, A.D. 2024-Apr-20 00:00:00.0000, -5.210523737807848E+07, 5.150872616771182E+06, 7.440199976514094E+03,
2460427.500000000, A.D. 2024-Apr-27 00:00:00.0000, -5.373842027914002E+07, -3.034660618066287E+07, 1.052539336368235E+06,
2460434.500000000, A.D. 2024-May-04 00:00:00.0000, -4.415742184981300E+07, -6.019845995241045E+07, 1.898127079336613E+06,
2460441.500000000, A.D. 2024-May-11 00:00:00.0000, -2.918388779142836E+07, -8.317197325335637E+07, 2.525776538950443E+06,
2460448.500000000, A.D. 2024-May-18 00:00:00.0000, -1.201560421275154E+07, -1.002551313916689E+08, 2.974156748800598E+06,
2460455.500000000, A.D. 2024-May-25 00:00:00.0000, 5.778237605010658E+06, -1.125947717074028E+08, 3.281641580596954E+06,
2460462.500000000, A.D. 2024-Jun-01 00:00:00.0000, 2.340508985029363E+07, -1.211058300635200E+08, 3.477449128152877E+06,
2460469.500000000, A.D. 2024-Jun-08 00:00:00.0000, 4.044153135833964E+07, -1.264737695568407E+08, 3.582951435982585E+06,
2460476.500000000, A.D. 2024-Jun-15 00:00:00.0000, 5.664780617692098E+07, -1.292120666589402E+08, 3.613922581703044E+06,
2460483.500000000, A.D. 2024-Jun-22 00:00:00.0000, 7.187985692493640E+07, -1.297118801412577E+08, 3.582261561336525E+06,
2460490.500000000, A.D. 2024-Jun-29 00:00:00.0000, 8.604511525752401E+07, -1.282775631104057E+08, 3.497167534023471E+06,
2460497.500000000, A.D. 2024-Jul-06 00:00:00.0000, 9.907896880427781E+07, -1.251511314103132E+08, 3.365928291316293E+06,
2460504.500000000, A.D. 2024-Jul-13 00:00:00.0000, 1.109315247195008E+08, -1.205291858456645E+08, 3.194456121837571E+06,
2460511.500000000, A.D. 2024-Jul-20 00:00:00.0000, 1.215597324566358E+08, -1.145748383067475E+08, 2.987661100071974E+06,
2460518.500000000, A.D. 2024-Jul-27 00:00:00.0000, 1.309223857445241E+08, -1.074263454951358E+08, 2.749719197861373E+06,
2460525.500000000, A.D. 2024-Aug-03 00:00:00.0000, 1.389766884708408E+08, -9.920357359219193E+07, 2.484272039967254E+06,
2460532.500000000, A.D. 2024-Aug-10 00:00:00.0000, 1.456756438827692E+08, -9.001305001111953E+07, 2.194582641075712E+06,
2460539.500000000, A.D. 2024-Aug-17 00:00:00.0000, 1.509658174031357E+08, -7.995213579886065E+07, 1.883664006332252E+06,
2460546.500000000, A.D. 2024-Aug-24 00:00:00.0000, 1.547851684129159E+08, -6.911272590834138E+07, 1.554393202666763E+06,
2460553.500000000, A.D. 2024-Aug-31 00:00:00.0000, 1.570607100287711E+08, -5.758482329309470E+07, 1.209621429108232E+06,
2460560.500000000, A.D. 2024-Sep-07 00:00:00.0000, 1.577057881927274E+08, -4.546031128985776E+07, 8.522919213241246E+05,
2460567.500000000, A.D. 2024-Sep-14 00:00:00.0000, 1.566169060831000E+08, -3.283734101851797E+07, 4.855911723365393E+05,
2460574.500000000, A.D. 2024-Sep-21 00:00:00.0000, 1.536699492821687E+08, -1.982636064934140E+07, 1.131598056118349E+05,
2460581.500000000, A.D. 2024-Sep-28 00:00:00.0000, 1.487146528193624E+08, -6.558669091933961E+06, -2.606696697718436E+05,
2460588.500000000, A.D. 2024-Oct-05 00:00:00.0000, 1.415672806212899E+08, 6.801805922347198E+06, -6.305269179165708E+05,
2460595.500000000, A.D. 2024-Oct-12 00:00:00.0000, 1.320017483512502E+08, 2.003997115376172E+07, -9.894205544068329E+05,
2460602.500000000, A.D. 2024-Oct-19 00:00:00.0000, 1.197386519802668E+08, 3.285879940831798E+07, -1.327796175105922E+06,
2460609.500000000, A.D. 2024-Oct-26 00:00:00.0000, 1.044334713458239E+08, 4.482624917856114E+07, -1.631943537736507E+06,
2460616.500000000, A.D. 2024-Nov-02 00:00:00.0000, 8.567084174115852E+07, 5.527911856796648E+07, -1.881161158327714E+06,
2460623.500000000, A.D. 2024-Nov-09 00:00:00.0000, 6.299189885478932E+07, 6.314118248080784E+07, -2.042509433626719E+06,
2460630.500000000, A.D. 2024-Nov-16 00:00:00.0000, 3.605615077622482E+07, 6.657587867850083E+07, -2.061124237956796E+06,
2460637.500000000, A.D. 2024-Nov-23 00:00:00.0000, 5.303859905495936E+06, 6.241385388154179E+07, -1.845456575486138E+06,
2460644.500000000, A.D. 2024-Nov-30 00:00:00.0000, -2.591199470979380E+07, 4.605278324716944E+07, -1.270831243087549E+06,
2460651.500000000, A.D. 2024-Dec-07 00:00:00.0000, -4.854015484097421E+07, 1.571210236967254E+07, -3.126357552442849E+05,
2460658.500000000, A.D. 2024-Dec-14 00:00:00.0000, -5.476381905195050E+07, -2.030466953452190E+07, 7.619466465664506E+05,
2460665.500000000, A.D. 2024-Dec-21 00:00:00.0000, -4.777064628852052E+07, -5.214999481752294E+07, 1.674003085494153E+06,
2460672.500000000, A.D. 2024-Dec-28 00:00:00.0000, -3.395792452666523E+07, -7.708050306592028E+07, 2.362616223571070E+06,
2460679.500000000, A.D. 2025-Jan-04 00:00:00.0000, -1.723028656029105E+07, -9.577525739061603E+07, 2.859583908665694E+06,
2460686.500000000, A.D. 2025-Jan-11 00:00:00.0000, 4.785983887360153E+05, -1.094108597877209E+08, 3.205282053790659E+06,
2460693.500000000, A.D. 2025-Jan-18 00:00:00.0000, 1.820503355585122E+07, -1.189757959819224E+08, 3.431618061306655E+06,
2460700.500000000, A.D. 2025-Jan-25 00:00:00.0000, 3.544270179610303E+07, -1.252167731506238E+08, 3.562019619696230E+06,
2460707.500000000, A.D. 2025-Feb-01 00:00:00.0000, 5.190964455787415E+07, -1.286917172981795E+08, 3.613697956525415E+06,
2460714.500000000, A.D. 2025-Feb-08 00:00:00.0000, 6.743938774300677E+07, -1.298232860363409E+08, 3.599547991795689E+06,
2460721.500000000, A.D. 2025-Feb-15 00:00:00.0000, 8.192714960620189E+07, -1.289382833959846E+08, 3.529467382359743E+06,
$$EOE